QIANFAN-145             
1 69104U 26108A   26199.66026306 -.01911575  00000+0 -27376+1 0  9998
2 69104  89.0103  18.9057 0022078   1.7626 358.3604 13.60394180  8680
QIANFAN-146             
1 69105U 26108B   26199.63783544 -.02009618  00000+0 -20808+1 0  9990
2 69105  89.0107  18.7979 0020358  24.1023 336.1093 13.79739615  8744
QIANFAN-147             
1 69106U 26108C   26198.93113643 -.01988083  00000+0 -30700+1 0  9993
2 69106  89.0103  18.9809 0016817  23.7391 336.4535 13.55164921  8574
QIANFAN-148             
1 69107U 26108D   26199.65365772 -.01822816  00000+0 -27534+1 0  9998
2 69107  89.0097  18.9019 0019723  19.8661 340.3257 13.56853878  8678
QIANFAN-149             
1 69108U 26108E   26199.77463136 -.01885945  00000+0 -29605+1 0  9998
2 69108  89.0101  18.9029 0023896  24.8987 335.3314 13.54537159  8698
QIANFAN-150             
1 69109U 26108F   26199.04437281 -.02074465  00000+0 -29050+1 0  9993
2 69109  89.0101  18.9442 0018413   4.5465 355.5856 13.61470758  8608
QIANFAN-151             
1 69110U 26108G   26199.53054409 -.01970361  00000+0 -28806+1 0  9993
2 69110  89.0099  18.9053 0019215  11.0537 349.1036 13.58558911  8667
QIANFAN-152             
1 69111U 26108H   26199.72495899 -.02053861  00000+0 -30864+1 0  9992
2 69111  89.0105  18.8794 0019793  16.9396 343.2415 13.56995443  8709
QIANFAN-153             
1 69112U 26108J   26199.65687676 -.02052749  00000+0 -27118+1 0  9993
2 69112  89.0096  18.8838 0022768  21.1679 339.0417 13.65009341  8681
QIANFAN-154             
1 69113U 26108K   26199.70806107 -.02014438  00000+0 -31793+1 0  9999
2 69113  89.0107  18.8956 0023724  17.1267 343.0681 13.53780667  8690
QIANFAN-155             
1 69114U 26108L   26199.71481132 -.01975117  00000+0 -28667+1 0  9993
2 69114  89.0100  18.8792 0017914  12.5990 347.5610 13.59034779  8691
QIANFAN-156             
1 69115U 26108M   26199.64544210 -.02012060  00000+0 -28509+1 0  9998
2 69115  89.0113  18.8745 0023452   2.9562 357.1729 13.60567961  8702
QIANFAN-157             
1 69116U 26108N   26199.76653183  .00000013  00000+0  70538-6 0  9998
2 69116  89.0103  18.8113 0019999  22.1610 338.0413 13.72883300  8743
QIANFAN-158             
1 69117U 26108P   26199.43030015 -.02087596  00000+0 -28682+1 0  9998
2 69117  89.0099  18.8715 0018768  20.6686 339.5227 13.62681387  8687
QIANFAN-159             
1 69118U 26108Q   26199.34699095 -.02084710  00000+0 -30133+1 0  9997
2 69118  89.0090  18.8921 0017988   5.0127 355.1206 13.59515039  8663
QIANFAN-160             
1 69119U 26108R   26199.53439004 -.02016168  00000+0 -31092+1 0  9998
2 69119  89.0109  18.8891 0024819  22.7576 337.4672 13.55239078  8680
